GLOBALSTAR M063         
1 26081U 00008A   25176.52659870 -.00000090  00000+0 -10261-3 0  9991
2 26081  51.9959  89.6084 0004837 339.7871 191.7173 11.86174910158564
GLOBALSTAR M062         
1 26082U 00008B   25176.42643725 -.00000076  00000+0  15749-3 0  9992
2 26082  51.9858  71.5527 0007233 123.5760  47.9476 12.43467845497643
GLOBALSTAR M060         
1 26083U 00008C   25176.94616265 -.00000023  00000+0  67244-3 0  9998
2 26083  52.0039  31.2717 0003564 129.5957   8.5780 12.17665771153603
GLOBALSTAR M064         
1 26084U 00008D   25176.97396423 -.00000086  00000+0 -38492-4 0  9997
2 26084  52.0002 187.1552 0001191  71.5189 288.5773 11.88534644168259
GLOBALSTAR M065         
1 31571U 07020A   25176.80343892 -.00000075  00000+0  16053-3 0  9994
2 31571  51.9865 200.0430 0010008 327.9432 202.9756 12.62009638834497
GLOBALSTAR M069         
1 31573U 07020C   25176.77190422 -.00000084  00000+0  78661-4 0  9995
2 31573  51.9921 180.9322 0001196 181.4186 349.9522 12.23446783835177
GLOBALSTAR M072         
1 31574U 07020D   25176.72135713 -.00000081  00000+0  43295-4 0  9995
2 31574  51.9951 329.2499 0000841  29.2598 343.6577 11.91649814832482
GLOBALSTAR M071         
1 31576U 07020F   25176.98184433 -.00000027  00000+0  63597-3 0  9994
2 31576  52.0029 206.1850 0000803 141.3110 246.1518 12.18255455834927
